GLOBALSTAR M073         
1 37193U 10054F   26064.33584357 -.00000107  00000+0 -18392-4 0  9995
2 37193  52.0083  20.4155 0000521 101.8693  63.4982 12.62269695710813
GLOBALSTAR M083         
1 37739U 11033A   26064.10549183 -.00000074  00000+0  16877-3 0  9999
2 37739  51.9881 329.4910 0000764  90.7181  48.9959 12.62267441679803
GLOBALSTAR M088         
1 37740U 11033B   26064.61967403 -.00000109  00000+0 -31170-4 0  9990
2 37740  52.0194 234.1007 0000843  94.7463 341.4676 12.62262133675411
GLOBALSTAR M091         
1 37741U 11033C   26064.55452012 -.00000099  00000+0  24307-4 0  9990
2 37741  51.9984 197.4169 0000906  99.5644 340.5810 12.62270228676191
GLOBALSTAR M085         
1 37742U 11033D   26064.63911176 -.00000070  00000+0  18802-3 0  9992
2 37742  52.0119 148.3613 0000832 106.5581  58.5023 12.62269465676711
GLOBALSTAR M081         
1 37743U 11033E   26064.57382164 -.00000077  00000+0  14686-3 0  9998
2 37743  51.9951 151.1137 0000747 122.5585 345.7349 12.62262630676858
GLOBALSTAR M089         
1 37744U 11033F   26064.54549235 -.00000075  00000+0  16089-3 0  9997
2 37744  51.9921 105.3792 0000316 159.5748 359.9411 12.62264619677696
GLOBALSTAR M084         
1 38040U 11080A   26064.76883203 -.00000073  00000+0  16918-3 0  9998
2 38040  52.0034 332.1267 0000396  87.4844 307.2656 12.62265355655707
GLOBALSTAR M080         
1 38041U 11080B   26064.21477884 -.00000076  00000+0  15428-3 0  9991
2 38041  52.0085 335.4962 0001002  59.3017 105.9822 12.62266902655759
GLOBALSTAR M082         
1 38042U 11080C   26064.76464223 -.00000074  00000+0  16679-3 0  9992
2 38042  52.0072 289.3136 0001106  73.1072   1.9865 12.62268105656532
GLOBALSTAR M092         
1 38043U 11080D   26064.60096656 -.00000093  00000+0  58635-4 0  9997
2 38043  52.0108  20.1979 0000390  77.2855  93.7036 12.62264317654962
GLOBALSTAR M090         
1 38044U 11080E   26064.62410020 -.00000077  00000+0  14922-3 0  9997
2 38044  52.0117 283.6642 0000928  88.3765 306.6729 12.62271767656634
GLOBALSTAR M086         
1 38045U 11080F   26064.03920361 -.00000073  00000+0  16974-3 0  9992
2 38045  51.9895 285.5440 0001267 143.1561   7.2243 12.62283479656508
GLOBALSTAR M097         
1 39072U 13005A   26064.74764816 -.00000114  00000+0 -56068-4 0  9997
2 39072  52.0032 198.2104 0001008 112.5649 247.5325 12.62284298603840
GLOBALSTAR M093         
1 39073U 13005B   26064.72155196 -.00000092  00000+0  64881-4 0  9997
2 39073  52.0096 191.5998 0001141 113.9068 246.1918 12.62273271603792
GLOBALSTAR M094         
1 39074U 13005C   26064.48416998 -.00000080  00000+0  13210-3 0  9997
2 39074  51.9951 106.5452 0000696 117.9532 242.1405 12.62267092605373
GLOBALSTAR M096         
1 39075U 13005D   26064.49731914 -.00000070  00000+0  18975-3 0  9999
2 39075  52.0068 155.2233 0000846 111.2254 248.8704 12.62263449604295
